NORAD_CAT_ID,OBJECT_NAME,OBJECT_TYPE,EPOCH,MEAN_MOTION,ECCENTRICITY,INCLINATION,RA_OF_ASC_NODE,ARG_OF_PERICENTER,MEAN_ANOMALY,BSTAR,MEAN_MOTION_DOT,MEAN_MOTION_DDOT,TLE_LINE0,TLE_LINE1,TLE_LINE2,SEMIMAJOR_AXIS,PERIOD,APOGEE,PERIGEE,DECAYED
54011.0,STARLINK-5124,PAYLOAD,2023-07-11 23:12:17,15.08847006,0.0001097,53.2155,246.5056,82.882,277.2296,0.00010139,1.326e-05,0.0,0 STARLINK-5124,1 54011U 22125AZ  23192.96687138  .00001326  00000-0  10139-3 0  9997,2 54011  53.2155 246.5056 0001097  82.8820 277.2296 15.08847006 42951,6917.859,95.437,540.483,538.965,0.0
54011.0,STARLINK-5124,PAYLOAD,2023-07-13 11:46:10,15.08839457,0.000104,53.2154,239.6652,86.763,273.3481,-8.8488e-06,-4.29e-06,0.0,0 STARLINK-5124,1 54011U 22125AZ  23194.49039572 -.00000429  00000-0 -88488-5 0  9999,2 54011  53.2154 239.6652 0001040  86.7630 273.3481 15.08839457 43185,6917.882,95.438,540.467,539.028,0.0
54011.0,STARLINK-5124,PAYLOAD,2023-07-14 13:12:20,15.08838983,0.0001042,53.2156,234.9077,94.7253,265.3859,6.6444e-05,7.7e-06,0.0,0 STARLINK-5124,1 54011U 22125AZ  23195.55023600  .00000770  00000-0  66444-4 0  9996,2 54011  53.2156 234.9077 0001042  94.7253 265.3859 15.08838983 43349,6917.883,95.438,540.469,539.028,0.0
54011.0,STARLINK-5124,PAYLOAD,2023-07-16 03:21:36,15.08832875,0.0001057,53.2156,227.7713,92.6084,267.5029,3.0477e-05,1.97e-06,0.0,0 STARLINK-5124,1 54011U 22125AZ  23197.14000282  .00000197  00000-0  30477-4 0  9994,2 54011  53.2156 227.7713 0001057  92.6084 267.5029 15.08832875 43584,6917.902,95.438,540.498,539.036,0.0
54011.0,STARLINK-5124,PAYLOAD,2023-07-18 01:27:46,15.08841152,9.83e-05,53.2156,219.147,93.9811,266.1293,0.00015738,2.218e-05,0.0,0 STARLINK-5124,1 54011U 22125AZ  23199.06095560  .00002218  00000-0  15738-3 0  9998,2 54011  53.2156 219.1470 0000983  93.9811 266.1293 15.08841152 43876,6917.877,95.437,540.422,539.062,0.0
54011.0,STARLINK-5124,PAYLOAD,2023-07-19 01:18:33,15.08838592,9.69e-05,53.215,214.6869,89.8806,270.2297,6.2812e-05,7.12e-06,0.0,0 STARLINK-5124,1 54011U 22125AZ  23200.05456017  .00000712  00000-0  62812-4 0  9991,2 54011  53.2150 214.6869 0000969  89.8806 270.2297 15.08838592 44026,6917.885,95.438,540.42,539.079,0.0
54011.0,STARLINK-5124,PAYLOAD,2023-07-21 01:00:08,15.08836081,0.0001039,53.2161,205.7658,100.7357,259.3753,7.3343e-05,8.8e-06,0.0,0 STARLINK-5124,1 54011U 22125AZ  23202.04176165  .00000880  00000-0  73343-4 0  9992,2 54011  53.2161 205.7658 0001039 100.7357 259.3753 15.08836081 44327,6917.892,95.438,540.476,539.039,0.0
54011.0,STARLINK-5124,PAYLOAD,2023-07-24 13:15:36,15.08834736,0.0001168,53.2161,190.0055,98.3625,261.75,0.00030995,4.648e-05,0.0,0 STARLINK-5124,1 54011U 22125AZ  23205.55250010  .00004648  00000-0  30995-3 0  9994,2 54011  53.2161 190.0055 0001168  98.3625 261.7500 15.08834736 44802,6917.896,95.438,540.569,538.953,0.0
54011.0,STARLINK-5124,PAYLOAD,2023-07-25 09:55:36,15.08856215,0.0001199,53.2153,186.1395,94.7794,265.3335,0.00039175,5.955e-05,0.0,0 STARLINK-5124,1 54011U 22125AZ  23206.41361316  .00005955  00000-0  39175-3 0  9993,2 54011  53.2153 186.1395 0001199  94.7794 265.3335 15.08856215 44933,6917.831,95.437,540.525,538.866,0.0
54011.0,STARLINK-5124,PAYLOAD,2023-07-26 08:11:00,15.08849657,0.0001429,53.2136,181.9807,71.4382,288.6765,0.00010701,1.416e-05,0.0,0 STARLINK-5124,1 54011U 22125AZ  23207.34097294  .00001416  00000-0  10701-3 0  9999,2 54011  53.2136 181.9807 0001429  71.4382 288.6765 15.08849657 45079,6917.851,95.437,540.704,538.727,0.0
54011.0,STARLINK-5124,PAYLOAD,2023-07-27 08:01:46,15.08853175,0.0001272,53.2153,177.5148,90.444,269.6698,-3.7585e-05,-8.86e-06,0.0,0 STARLINK-5124,1 54011U 22125AZ  23208.33456442 -.00000886  00000-0 -37585-4 0  9995,2 54011  53.2153 177.5148 0001272  90.4440 269.6698 15.08853175 45220,6917.84,95.437,540.585,538.825,0.0
54011.0,STARLINK-5124,PAYLOAD,2023-07-27 22:20:15,15.08833256,0.000107,53.2147,174.8371,103.8683,256.2428,-5.6663e-05,-1.189e-05,0.0,0 STARLINK-5124,1 54011U 22125AZ  23208.93073374 -.00001189  00000-0 -56663-4 0  9995,2 54011  53.2147 174.8371 0001070 103.8683 256.2428 15.08833256 45316,6917.901,95.438,540.506,539.026,0.0
54011.0,STARLINK-5124,PAYLOAD,2023-07-28 01:31:01,15.08834384,0.0001263,53.2145,174.2418,112.7381,247.3745,-3.2674e-05,-8.08e-06,0.0,0 STARLINK-5124,1 54011U 22125AZ  23209.06321317 -.00000808  00000-0 -32674-4 0  9996,2 54011  53.2145 174.2418 0001263 112.7381 247.3745 15.08834384 45381,6917.898,95.438,540.636,538.889,0.0
54011.0,STARLINK-5124,PAYLOAD,2023-07-28 07:52:34,15.08835107,0.000124,53.2156,173.055,102.7301,257.383,-5.3589e-05,-1.14e-05,0.0,0 STARLINK-5124,1 54011U 22125AZ  23209.32817440 -.00001140  00000-0 -53589-4 0  9990,2 54011  53.2156 173.0550 0001240 102.7301 257.3830 15.08835107 45372,6917.895,95.438,540.618,538.903,0.0
54011.0,STARLINK-5124,PAYLOAD,2023-07-29 02:57:11,15.08839868,0.000113,53.2154,169.4873,100.4774,259.6345,1.2185e-05,-9.4e-07,0.0,0 STARLINK-5124,1 54011U 22125AZ  23210.12305374 -.00000094  00000-0  12185-4 0  9991,2 54011  53.2154 169.4873 0001130 100.4774 259.6345 15.08839868 45547,6917.881,95.438,540.528,538.964,0.0
54011.0,STARLINK-5124,PAYLOAD,2023-07-30 02:47:59,15.08832386,0.0001368,53.2159,165.0267,111.0382,249.0756,7.752e-05,9.46e-06,0.0,0 STARLINK-5124,1 54011U 22125AZ  23211.11666269  .00000946  00000-0  77520-4 0  9993,2 54011  53.2159 165.0267 0001368 111.0382 249.0756 15.08832386 45690,6917.904,95.438,540.715,538.822,0.0
54011.0,STARLINK-5124,PAYLOAD,2023-07-31 02:38:46,15.08851786,0.0001155,53.2145,160.5639,108.8152,251.2965,0.00036957,5.601e-05,0.0,0 STARLINK-5124,1 54011U 22125AZ  23212.11025547  .00005601  00000-0  36957-3 0  9993,2 54011  53.2145 160.5639 0001155 108.8152 251.2965 15.08851786 45840,6917.844,95.437,540.508,538.91,0.0
54011.0,STARLINK-5124,PAYLOAD,2023-07-31 13:46:28,15.08844949,0.0001295,53.2158,158.4857,88.9276,271.1864,0.00027725,4.128e-05,0.0,0 STARLINK-5124,1 54011U 22125AZ  23212.57393858  .00004128  00000-0  27725-3 0  9992,2 54011  53.2158 158.4857 0001295  88.9276 271.1864 15.08844949 45912,6917.865,95.437,540.626,538.834,0.0
54011.0,STARLINK-5124,PAYLOAD,2023-08-01 02:29:33,15.08841134,0.0001401,53.2166,156.1034,93.4403,266.6749,0.00010746,1.423e-05,0.0,0 STARLINK-5124,1 54011U 22125AZ  23213.10386064  .00001423  00000-0  10746-3 0  9993,2 54011  53.2166 156.1034 0001401  93.4403 266.6749 15.08841134 45997,6917.877,95.437,540.711,538.773,0.0
54011.0,STARLINK-5124,PAYLOAD,2023-08-02 05:31:06,15.08846926,0.0001187,53.2158,151.0484,99.6998,260.4128,6.9982e-05,8.26e-06,0.0,0 STARLINK-5124,1 54011U 22125AZ  23214.22993775  .00000826  00000-0  69982-4 0  9993,2 54011  53.2158 151.0484 0001187  99.6998 260.4128 15.08846926 46166,6917.859,95.437,540.545,538.903,0.0
54011.0,STARLINK-5124,PAYLOAD,2023-08-04 02:01:54,15.08836463,0.0001128,53.2168,142.7224,91.5513,268.5608,-1.9326e-05,-5.95e-06,0.0,0 STARLINK-5124,1 54011U 22125AZ  23216.08466255 -.00000595  00000-0 -19326-4 0  9999,2 54011  53.2168 142.7224 0001128  91.5513 268.5608 15.08836463 46443,6917.891,95.438,540.537,538.976,0.0
54011.0,STARLINK-5124,PAYLOAD,2023-08-05 01:52:41,15.08850391,0.0001145,53.2164,138.2634,96.9578,263.1545,0.00032173,4.838e-05,0.0,0 STARLINK-5124,1 54011U 22125AZ  23217.07826032  .00004838  00000-0  32173-3 0  9998,2 54011  53.2164 138.2634 0001145  96.9578 263.1545 15.08850391 46596,6917.849,95.437,540.506,538.922,0.0
54011.0,STARLINK-5124,PAYLOAD,2023-08-06 03:18:50,15.08874548,0.000107,53.2156,133.5074,91.4872,268.6243,0.00080096,0.00012494,0.0,0 STARLINK-5124,1 54011U 22125AZ  23218.13808874  .00012494  00000-0  80096-3 0  9994,2 54011  53.2156 133.5074 0001070  91.4872 268.6243 15.08874548 46750,6917.775,95.435,540.38,538.9,0.0
54011.0,STARLINK-5124,PAYLOAD,2023-08-06 17:37:19,15.08843779,0.0002254,53.2147,130.8369,77.7992,282.3252,-7.4996e-05,-1.482e-05,0.0,0 STARLINK-5124,1 54011U 22125AZ  23218.73425780 -.00001482  00000-0 -74996-4 0  9991,2 54011  53.2147 130.8369 0002254  77.7992 282.3252 15.08843779 46847,6917.869,95.437,541.293,538.175,0.0
54011.0,STARLINK-5124,PAYLOAD,2023-08-06 23:58:53,15.08815149,0.0001144,53.2156,129.6421,79.4032,280.7089,-0.00063066,-0.00010304,0.0,0 STARLINK-5124,1 54011U 22125AZ  23218.99922459 -.00010304  00000-0 -63066-3 0  9992,2 54011  53.2156 129.6421 0001144  79.4032 280.7089 15.08815149 46887,6917.956,95.439,540.613,539.03,0.0
54011.0,STARLINK-5124,PAYLOAD,2023-08-07 11:06:35,15.08822107,0.0001105,53.2154,127.5605,76.8709,283.2406,0.00010621,1.402e-05,0.0,0 STARLINK-5124,1 54011U 22125AZ  23219.46291117  .00001402  00000-0  10621-3 0  9991,2 54011  53.2154 127.5605 0001105  76.8709 283.2406 15.08822107 46956,6917.935,95.439,540.565,539.036,0.0
54011.0,STARLINK-5124,PAYLOAD,2023-08-07 23:49:41,15.08845058,0.0001039,53.2148,125.181,74.3326,285.7781,0.0014346,0.00022621,0.0,0 STARLINK-5124,1 54011U 22125AZ  23219.99283604  .00022621  00000-0  14346-2 0  9994,2 54011  53.2148 125.1810 0001039  74.3326 285.7781 15.08845058 47038,6917.865,95.437,540.449,539.011,0.0
54011.0,STARLINK-5124,PAYLOAD,2023-08-08 17:18:55,15.08863738,0.0001069,53.2147,121.9111,74.6417,285.4693,0.0011394,0.00017904,0.0,0 STARLINK-5124,1 54011U 22125AZ  23220.72147025  .00017904  00000-0  11394-2 0  9991,2 54011  53.2147 121.9111 0001069  74.6417 285.4693 15.08863738 47148,6917.808,95.436,540.412,538.933,0.0
54011.0,STARLINK-5124,PAYLOAD,2023-08-09 17:09:41,15.0885496,0.0001332,53.2151,117.4475,109.4137,250.6999,0.00027897,4.156e-05,0.0,0 STARLINK-5124,1 54011U 22125AZ  23221.71506099  .00004156  00000-0  27897-3 0  9992,2 54011  53.2151 117.4475 0001332 109.4137 250.6999 15.08854960 47291,6917.835,95.437,540.621,538.778,0.0
54011.0,STARLINK-5124,PAYLOAD,2023-08-10 01:06:37,15.08845975,0.0001125,53.2156,115.9607,109.9973,250.114,-4.5577e-06,-3.6e-06,0.0,0 STARLINK-5124,1 54011U 22125AZ  23222.04626180 -.00000360  00000-0 -45577-5 0  9995,2 54011  53.2156 115.9607 0001125 109.9973 250.1140 15.08845975 47344,6917.862,95.437,540.505,538.949,0.0
